[
    {
        "Altitude(m)": 554398.9746134869,
        "Argument of Periapsis(deg)": 0.026491964442854003,
        "Eccentricity": 0.0,
        "Inclination(deg)": 53.0,
        "Latitude(deg)": -1.2245275126410495,
        "Longitude(deg)": -114.10184791443125,
        "Mean Anomaly(deg)": -1.4517285296896016,
        "RAAN(deg)": 349.96057347411204,
        "Satellite Name": "Starlink Shell 1 1559",
        "Satellite Number": 1559,
        "Semi-Major Axis(m)": 6931778.249405717,
        "Time(s)": 760
    },
    {
        "Altitude(m)": 554328.2161740345,
        "Argument of Periapsis(deg)": 0.02684054292236524,
        "Eccentricity": 0.0,
        "Inclination(deg)": 53.0,
        "Latitude(deg)": -0.7206480068068291,
        "Longitude(deg)": -113.76638271228626,
        "Mean Anomaly(deg)": -0.824897326132855,
        "RAAN(deg)": 349.9600547040346,
        "Satellite Name": "Starlink Shell 1 1559",
        "Satellite Number": 1559,
        "Semi-Major Axis(m)": 6931778.249405717,
        "Time(s)": 770
    },
    {
        "Altitude(m)": 554260.2427690811,
        "Argument of Periapsis(deg)": 0.027189121401876473,
        "Eccentricity": 0.0,
        "Inclination(deg)": 53.0,
        "Latitude(deg)": -0.21672619760527503,
        "Longitude(deg)": -113.43099306055333,
        "Mean Anomaly(deg)": -0.1980661225762104,
        "RAAN(deg)": 349.9595359339571,
        "Satellite Name": "Starlink Shell 1 1559",
        "Satellite Number": 1559,
        "Semi-Major Axis(m)": 6931778.249405717,
        "Time(s)": 780
    },
    {
        "Altitude(m)": 554195.0636506567,
        "Argument of Periapsis(deg)": 0.02753769988138771,
        "Eccentricity": 0.0,
        "Inclination(deg)": 53.0,
        "Latitude(deg)": 0.28721502050271147,
        "Longitude(deg)": -113.09562092549578,
        "Mean Anomaly(deg)": 0.42876508098048527,
        "RAAN(deg)": 349.95901716387965,
        "Satellite Name": "Starlink Shell 1 1559",
        "Satellite Number": 1559,
        "Semi-Major Axis(m)": 6931778.249405717,
        "Time(s)": 790
    },
    {
        "Altitude(m)": 554132.686716193,
        "Argument of Periapsis(deg)": 0.02788627836089895,
        "Eccentricity": 0.0,
        "Inclination(deg)": 53.0,
        "Latitude(deg)": 0.7911527542912388,
        "Longitude(deg)": -112.7602087828389,
        "Mean Anomaly(deg)": 1.0555962845373337,
        "RAAN(deg)": 349.95849839380213,
        "Satellite Name": "Starlink Shell 1 1559",
        "Satellite Number": 1559,
        "Semi-Major Axis(m)": 6931778.249405717,
        "Time(s)": 800
    },
    {
        "Altitude(m)": 554073.1185073542,
        "Argument of Periapsis(deg)": 0.02823485684041019,
        "Eccentricity": 0.0,
        "Inclination(deg)": 53.0,
        "Latitude(deg)": 1.2950641000915544,
        "Longitude(deg)": -112.42469908825484,
        "Mean Anomaly(deg)": 1.6824274880939785,
        "RAAN(deg)": 349.9579796237247,
        "Satellite Name": "Starlink Shell 1 1559",
        "Satellite Number": 1559,
        "Semi-Major Axis(m)": 6931778.249405717,
        "Time(s)": 810
    },
    {
        "Altitude(m)": 554016.3642095103,
        "Argument of Periapsis(deg)": 0.028583435319921423,
        "Eccentricity": 0.0,
        "Inclination(deg)": 53.0,
        "Latitude(deg)": 1.7989261321070196,
        "Longitude(deg)": -112.08903374783729,
        "Mean Anomaly(deg)": 2.3092586916506233,
        "RAAN(deg)": 349.95746085364726,
        "Satellite Name": "Starlink Shell 1 1559",
        "Satellite Number": 1559,
        "Semi-Major Axis(m)": 6931778.249405717,
        "Time(s)": 820
    },
    {
        "Altitude(m)": 553962.4276519336,
        "Argument of Periapsis(deg)": 0.028932013799432665,
        "Eccentricity": 0.0,
        "Inclination(deg)": 53.0,
        "Latitude(deg)": 2.3027158907075522,
        "Longitude(deg)": -111.7531551014328,
        "Mean Anomaly(deg)": 2.93608989520742,
        "RAAN(deg)": 349.95694208356974,
        "Satellite Name": "Starlink Shell 1 1559",
        "Satellite Number": 1559,
        "Semi-Major Axis(m)": 6931778.249405717,
        "Time(s)": 830
    },
    {
        "Altitude(m)": 553911.31130866,
        "Argument of Periapsis(deg)": 0.029280592278943897,
        "Eccentricity": 0.0,
        "Inclination(deg)": 53.0,
        "Latitude(deg)": 2.8064103706923005,
        "Longitude(deg)": -111.41700539307361,
        "Mean Anomaly(deg)": 3.562921098764167,
        "RAAN(deg)": 349.9564233134923,
        "Satellite Name": "Starlink Shell 1 1559",
        "Satellite Number": 1559,
        "Semi-Major Axis(m)": 6931778.249405717,
        "Time(s)": 840
    },
    {
        "Altitude(m)": 553863.0163000007,
        "Argument of Periapsis(deg)": 0.029629170758455132,
        "Eccentricity": 0.0,
        "Inclination(deg)": 53.0,
        "Latitude(deg)": 3.309986509510078,
        "Longitude(deg)": -111.08052624137852,
        "Mean Anomaly(deg)": 4.189752302320812,
        "RAAN(deg)": 349.9559045434148,
        "Satellite Name": "Starlink Shell 1 1559",
        "Satellite Number": 1559,
        "Semi-Major Axis(m)": 6931778.249405717,
        "Time(s)": 850
    },
    {
        "Altitude(m)": 553817.5423947651,
        "Argument of Periapsis(deg)": 0.02997774923796637,
        "Eccentricity": 0.0,
        "Inclination(deg)": 53.0,
        "Latitude(deg)": 3.8134211754270537,
        "Longitude(deg)": -110.74365979088347,
        "Mean Anomaly(deg)": 4.8165835058775075,
        "RAAN(deg)": 349.95538577333735,
        "Satellite Name": "Starlink Shell 1 1559",
        "Satellite Number": 1559,
        "Semi-Major Axis(m)": 6931778.249405717,
        "Time(s)": 860
    },
    {
        "Altitude(m)": 553774.888013157,
        "Argument of Periapsis(deg)": 0.030326327717477602,
        "Eccentricity": 0.0,
        "Inclination(deg)": 53.0,
        "Latitude(deg)": 4.316691155627201,
        "Longitude(deg)": -110.406347341871,
        "Mean Anomaly(deg)": 5.443414709434305,
        "RAAN(deg)": 349.9548670032599,
        "Satellite Name": "Starlink Shell 1 1559",
        "Satellite Number": 1559,
        "Semi-Major Axis(m)": 6931778.249405717,
        "Time(s)": 870
    },
    {
        "Altitude(m)": 553735.0502303093,
        "Argument of Periapsis(deg)": 0.030674906196988847,
        "Eccentricity": 0.0,
        "Inclination(deg)": 53.0,
        "Latitude(deg)": 4.819773144237853,
        "Longitude(deg)": -110.0685305016016,
        "Mean Anomaly(deg)": 6.070245912991001,
        "RAAN(deg)": 349.9543482331824,
        "Satellite Name": "Starlink Shell 1 1559",
        "Satellite Number": 1559,
        "Semi-Major Axis(m)": 6931778.249405717,
        "Time(s)": 880
    },
    {
        "Altitude(m)": 553698.0247805273,
        "Argument of Periapsis(deg)": 0.031023484676500086,
        "Eccentricity": 0.0,
        "Inclination(deg)": 53.0,
        "Latitude(deg)": 5.322643730267056,
        "Longitude(deg)": -109.73015065451366,
        "Mean Anomaly(deg)": 6.697077116547696,
        "RAAN(deg)": 349.9538294631049,
        "Satellite Name": "Starlink Shell 1 1559",
        "Satellite Number": 1559,
        "Semi-Major Axis(m)": 6931778.249405717,
        "Time(s)": 890
    },
    {
        "Altitude(m)": 553663.8060622026,
        "Argument of Periapsis(deg)": 0.03137206315601132,
        "Eccentricity": 0.0,
        "Inclination(deg)": 53.0,
        "Latitude(deg)": 5.825279385440268,
        "Longitude(deg)": -109.39114843235843,
        "Mean Anomaly(deg)": 7.323908320104391,
        "RAAN(deg)": 349.95331069302745,
        "Satellite Name": "Starlink Shell 1 1559",
        "Satellite Number": 1559,
        "Semi-Major Axis(m)": 6931778.249405717,
        "Time(s)": 900
    },
    {
        "Altitude(m)": 553632.3871433403,
        "Argument of Periapsis(deg)": 0.03172064163552255,
        "Eccentricity": 0.0,
        "Inclination(deg)": 53.0,
        "Latitude(deg)": 6.327656451927814,
        "Longitude(deg)": -109.05146469713607,
        "Mean Anomaly(deg)": 7.9507395236611895,
        "RAAN(deg)": 349.95279192295,
        "Satellite Name": "Starlink Shell 1 1559",
        "Satellite Number": 1559,
        "Semi-Major Axis(m)": 6931778.249405717,
        "Time(s)": 910
    },
    {
        "Altitude(m)": 553603.7597678279,
        "Argument of Periapsis(deg)": 0.0320692201150338,
        "Eccentricity": 0.0,
        "Inclination(deg)": 53.0,
        "Latitude(deg)": 6.829751129948411,
        "Longitude(deg)": -108.71104001108118,
        "Mean Anomaly(deg)": 8.577570727217834,
        "RAAN(deg)": 349.95227315287246,
        "Satellite Name": "Starlink Shell 1 1559",
        "Satellite Number": 1559,
        "Semi-Major Axis(m)": 6931778.249405717,
        "Time(s)": 920
    },
    {
        "Altitude(m)": 553577.9143622929,
        "Argument of Periapsis(deg)": 0.032417798594545036,
        "Eccentricity": 0.0,
        "Inclination(deg)": 53.0,
        "Latitude(deg)": 7.331539465238814,
        "Longitude(deg)": -108.36981410656666,
        "Mean Anomaly(deg)": 9.204401930774479,
        "RAAN(deg)": 349.95175438279506,
        "Satellite Name": "Starlink Shell 1 1559",
        "Satellite Number": 1559,
        "Semi-Major Axis(m)": 6931778.249405717,
        "Time(s)": 930
    },
    {
        "Altitude(m)": 553554.84004365,
        "Argument of Periapsis(deg)": 0.03276637707405627,
        "Eccentricity": 0.0,
        "Inclination(deg)": 53.0,
        "Latitude(deg)": 7.832997336378427,
        "Longitude(deg)": -108.02772686879545,
        "Mean Anomaly(deg)": 9.831233134331276,
        "RAAN(deg)": 349.9512356127176,
        "Satellite Name": "Starlink Shell 1 1559",
        "Satellite Number": 1559,
        "Semi-Major Axis(m)": 6931778.249405717,
        "Time(s)": 940
    }
]